start=new Date('2022-07-20T00:00:00.000Z').valueOf();
sats=[{"RCS_SIZE":"LARGE","MEAN_MOTION_DOT":"0.00021921","BSTAR":"0.00112610000000","RA_OF_ASC_NODE":"236.8465","EPOCH":"2022-07-19T11:26:41.535168","MEAN_ELEMENT_THEORY":"SGP4","PERIAPSIS":"515.970","PERIOD":"94.959","SEMIMAJOR_AXIS":"6894.754","NORAD_CAT_ID":"45202","COUNTRY_CODE":"US","OBJECT_TYPE":"PAYLOAD","DECAY_DATE":null,"REF_FRAME":"TEME","TIME_SYSTEM":"UTC","EPHEMERIS_TYPE":"0","MEAN_MOTION_DDOT":"0.0000000000000","FILE":"3517724","LAUNCH_DATE":"2020-02-17","ECCENTRICITY":"0.00009410","ARG_OF_PERICENTER":"1.7450","SITE":"AFETR","TLE_LINE1":"1 45202U 20012AA  22200.47686962  .00021921  00000-0  11261-2 0  9990","OBJECT_ID":"2020-012AA","APOAPSIS":"517.268","INCLINATION":"52.9783","REV_AT_EPOCH":"13470","MEAN_ANOMALY":"358.3545","CENTER_NAME":"EARTH","CLASSIFICATION_TYPE":"U","TLE_LINE2":"2 45202  52.9783 236.8465 0000941   1.7450 358.3545 15.16437886134701","MEAN_MOTION":"15.16437886","GP_ID":"208442806","ELEMENT_SET_NO":"999","OBJECT_NAME":"STARLINK-1203"},{"OBJECT_TYPE":"PAYLOAD","DECAY_DATE":null,"REF_FRAME":"TEME","TIME_SYSTEM":"UTC","EPHEMERIS_TYPE":"0","PERIOD":"95.593","SEMIMAJOR_AXIS":"6925.366","NORAD_CAT_ID":"45204","COUNTRY_CODE":"US","BSTAR":"-0.00000901210000","RA_OF_ASC_NODE":"233.5858","EPOCH":"2022-07-19T11:59:55.573728","MEAN_ELEMENT_THEORY":"SGP4","PERIAPSIS":"546.073","MEAN_MOTION_DOT":"-0.00000416","RCS_SIZE":"LARGE","MEAN_ANOMALY":"294.1071","CLASSIFICATION_TYPE":"U","CENTER_NAME":"EARTH","TLE_LINE2":"2 45204  53.0527 233.5858 0001672  66.0093 294.1071 15.06394308133845","GP_ID":"208419008","ELEMENT_SET_NO":"999","MEAN_MOTION":"15.06394308","OBJECT_NAME":"STARLINK-1206","ARG_OF_PERICENTER":"66.0093","TLE_LINE1":"1 45204U 20012AC  22200.49994877 -.00000416  00000-0 -90121-5 0  9994","OBJECT_ID":"2020-012AC","SITE":"AFETR","INCLINATION":"53.0527","APOAPSIS":"548.389","REV_AT_EPOCH":"13384","ECCENTRICITY":"0.00016720","MEAN_MOTION_DDOT":"0.0000000000000","FILE":"3517597","LAUNCH_DATE":"2020-02-17"},{"ARG_OF_PERICENTER":"65.6168","OBJECT_ID":"2020-012AD","TLE_LINE1":"1 45205U 20012AD  22200.78745461  .00000600  00000-0  59217-4 0  9993","SITE":"AFETR","INCLINATION":"53.0547","APOAPSIS":"548.369","REV_AT_EPOCH":"13484","GP_ID":"208468857","MEAN_MOTION":"15.06387682","ELEMENT_SET_NO":"999","OBJECT_NAME":"STARLINK-1208","CENTER_NAME":"EARTH","CLASSIFICATION_TYPE":"U","MEAN_ANOMALY":"294.4990","TLE_LINE2":"2 45205  53.0547 232.2801 0001614  65.6168 294.4990 15.06387682134847","FILE":"3517796","LAUNCH_DATE":"2020-02-17","MEAN_MOTION_DDOT":"0.0000000000000","ECCENTRICITY":"0.00016140","PERIOD":"95.593","SEMIMAJOR_AXIS":"6925.386","NORAD_CAT_ID":"45205","COUNTRY_CODE":"US","TIME_SYSTEM":"UTC","EPHEMERIS_TYPE":"0","OBJECT_TYPE":"PAYLOAD","DECAY_DATE":null,"REF_FRAME":"TEME","RCS_SIZE":"LARGE","MEAN_MOTION_DOT":"0.00000600","PERIAPSIS":"546.134","BSTAR":"0.00005921700000","RA_OF_ASC_NODE":"232.2801","EPOCH":"2022-07-19T18:53:56.078304","MEAN_ELEMENT_THEORY":"SGP4"},{"BSTAR":"0.00002336400000","RA_OF_ASC_NODE":"212.4584","MEAN_ELEMENT_THEORY":"SGP4","EPOCH":"2022-07-19T17:58:12.570240","PERIAPSIS":"546.161","MEAN_MOTION_DOT":"0.00000066","RCS_SIZE":"LARGE","OBJECT_TYPE":"PAYLOAD","REF_FRAME":"TEME","DECAY_DATE":null,"EPHEMERIS_TYPE":"0","TIME_SYSTEM":"UTC","SEMIMAJOR_AXIS":"6925.364","PERIOD":"95.592","COUNTRY_CODE":"US","NORAD_CAT_ID":"45206","ECCENTRICITY":"0.00015430","MEAN_MOTION_DDOT":"0.0000000000000","FILE":"3517796","LAUNCH_DATE":"2020-02-17","TLE_LINE2":"2 45206  53.0528 212.4584 0001543  66.7090 293.4061 15.06394914134149","CLASSIFICATION_TYPE":"U","MEAN_ANOMALY":"293.4061","CENTER_NAME":"EARTH","GP_ID":"208469108","ELEMENT_SET_NO":"999","MEAN_MOTION":"15.06394914","OBJECT_NAME":"STARLINK-1209","TLE_LINE1":"1 45206U 20012AE  22200.74875660  .00000066  00000-0  23364-4 0  9995","OBJECT_ID":"2020-012AE","SITE":"AFETR","ARG_OF_PERICENTER":"66.7090","REV_AT_EPOCH":"13414","INCLINATION":"53.0528","APOAPSIS":"548.298"},{"TIME_SYSTEM":"UTC","EPHEMERIS_TYPE":"0","OBJECT_TYPE":"PAYLOAD","DECAY_DATE":null,"REF_FRAME":"TEME","PERIOD":"95.592","SEMIMAJOR_AXIS":"6925.335","NORAD_CAT_ID":"45207","COUNTRY_CODE":"US","PERIAPSIS":"546.164","BSTAR":"0.00020330000000","RA_OF_ASC_NODE":"232.1870","EPOCH":"2022-07-19T19:25:46.142112","MEAN_ELEMENT_THEORY":"SGP4","MEAN_MOTION_DOT":"0.00002748","RCS_SIZE":"LARGE","GP_ID":"208467856","ELEMENT_SET_NO":"999","MEAN_MOTION":"15.06404397","OBJECT_NAME":"STARLINK-1210","CENTER_NAME":"EARTH","MEAN_ANOMALY":"291.5041","CLASSIFICATION_TYPE":"U","TLE_LINE2":"2 45207  53.0541 232.1870 0001496  68.6108 291.5041 15.06404397134829","ARG_OF_PERICENTER":"68.6108","SITE":"AFETR","TLE_LINE1":"1 45207U 20012AF  22200.80956183  .00002748  00000-0  20330-3 0  9991","OBJECT_ID":"2020-012AF","APOAPSIS":"548.236","INCLINATION":"53.0541","REV_AT_EPOCH":"13482","ECCENTRICITY":"0.00014960","FILE":"3517796","LAUNCH_DATE":"2020-02-17","MEAN_MOTION_DDOT":"0.0000000000000"},{"SITE":"AFETR","TLE_LINE1":"1 45208U 20012AG  22200.78599121  .00000316  00000-0  40866-4 0  9990","OBJECT_ID":"2020-012AG","ARG_OF_PERICENTER":"79.1537","REV_AT_EPOCH":"13471","APOAPSIS":"550.511","INCLINATION":"52.9985","ELEMENT_SET_NO":"999","GP_ID":"208468106","MEAN_MOTION":"15.05584627","OBJECT_NAME":"STARLINK-1211","TLE_LINE2":"2 45208  52.9985 232.3031 0001151  79.1537 280.9581 15.05584627134715","MEAN_ANOMALY":"280.9581","CENTER_NAME":"EARTH","CLASSIFICATION_TYPE":"U","FILE":"3517796","LAUNCH_DATE":"2020-02-17","MEAN_MOTION_DDOT":"0.0000000000000","ECCENTRICITY":"0.00011510","SEMIMAJOR_AXIS":"6927.849","PERIOD":"95.644","COUNTRY_CODE":"US","NORAD_CAT_ID":"45208","EPHEMERIS_TYPE":"0","TIME_SYSTEM":"UTC","OBJECT_TYPE":"PAYLOAD","REF_FRAME":"TEME","DECAY_DATE":null,"RCS_SIZE":"LARGE","MEAN_MOTION_DOT":"0.00000316","PERIAPSIS":"548.916","BSTAR":"0.00004086600000","RA_OF_ASC_NODE":"232.3031","MEAN_ELEMENT_THEORY":"SGP4","EPOCH":"2022-07-19T18:51:49.640544"},{"SEMIMAJOR_AXIS":"6717.772","PERIOD":"91.327","COUNTRY_CODE":"US","NORAD_CAT_ID":"45209","EPHEMERIS_TYPE":"0","TIME_SYSTEM":"UTC","OBJECT_TYPE":"PAYLOAD","REF_FRAME":"TEME","DECAY_DATE":null,"MEAN_MOTION_DOT":"0.00017405","RCS_SIZE":"LARGE","PERIAPSIS":"333.647","BSTAR":"0.00010978000000","RA_OF_ASC_NODE":"42.4933","MEAN_ELEMENT_THEORY":"SGP4","EPOCH":"2022-07-19T20:06:36.595584","TLE_LINE1":"1 45209U 20012AH  22200.83792356  .00017405  00000-0  10978-3 0  9999","SITE":"AFETR","OBJECT_ID":"2020-012AH","ARG_OF_PERICENTER":"289.7978","REV_AT_EPOCH":"13742","INCLINATION":"53.0427","APOAPSIS":"345.626","MEAN_MOTION":"15.76757496","GP_ID":"208469358","ELEMENT_SET_NO":"999","OBJECT_NAME":"STARLINK-1218","TLE_LINE2":"2 45209  53.0427  42.4933 0008916 289.7978  70.2079 15.76757496137421","CENTER_NAME":"EARTH","CLASSIFICATION_TYPE":"U","MEAN_ANOMALY":"70.2079","FILE":"3517796","LAUNCH_DATE":"2020-02-17","MEAN_MOTION_DDOT":"0.0000000000000","ECCENTRICITY":"0.00089160"},{"PERIAPSIS":"546.139","MEAN_ELEMENT_THEORY":"SGP4","EPOCH":"2022-07-19T19:31:05.060064","RA_OF_ASC_NODE":"232.1907","BSTAR":"0.00008930400000","MEAN_MOTION_DOT":"0.00001049","RCS_SIZE":"LARGE","EPHEMERIS_TYPE":"0","TIME_SYSTEM":"UTC","REF_FRAME":"TEME","DECAY_DATE":null,"OBJECT_TYPE":"PAYLOAD","COUNTRY_CODE":"US","NORAD_CAT_ID":"45210","SEMIMAJOR_AXIS":"6925.342","PERIOD":"95.592","ECCENTRICITY":"0.00015420","LAUNCH_DATE":"2020-02-17","FILE":"3517796","MEAN_MOTION_DDOT":"0.0000000000000","OBJECT_NAME":"STARLINK-1219","GP_ID":"208469608","MEAN_MOTION":"15.06402104","ELEMENT_SET_NO":"999","TLE_LINE2":"2 45210  53.0534 232.1907 0001542  61.6083 298.5061 15.06402104134714","CENTER_NAME":"EARTH","MEAN_ANOMALY":"298.5061","CLASSIFICATION_TYPE":"U","REV_AT_EPOCH":"13471","APOAPSIS":"548.275","INCLINATION":"53.0534","SITE":"AFETR","TLE_LINE1":"1 45210U 20012AJ  22200.81325301  .00001049  00000-0  89304-4 0  9998","OBJECT_ID":"2020-012AJ","ARG_OF_PERICENTER":"61.6083"},{"RCS_SIZE":"LARGE","MEAN_MOTION_DOT":"0.00003889","EPOCH":"2022-07-19T18:43:19.540128","MEAN_ELEMENT_THEORY":"SGP4","RA_OF_ASC_NODE":"232.3379","BSTAR":"0.00027989000000","PERIAPSIS":"546.208","NORAD_CAT_ID":"45212","COUNTRY_CODE":"US","PERIOD":"95.593","SEMIMAJOR_AXIS":"6925.384","DECAY_DATE":null,"REF_FRAME":"TEME","OBJECT_TYPE":"PAYLOAD","TIME_SYSTEM":"UTC","EPHEMERIS_TYPE":"0","MEAN_MOTION_DDOT":"0.0000000000000","LAUNCH_DATE":"2020-02-17","FILE":"3517796","ECCENTRICITY":"0.00015030","INCLINATION":"53.0532","APOAPSIS":"548.290","REV_AT_EPOCH":"13477","ARG_OF_PERICENTER":"66.6903","TLE_LINE1":"1 45212U 20012AL  22200.78008727  .00003889  00000-0  27989-3 0  9990","OBJECT_ID":"2020-012AL","SITE":"AFETR","CENTER_NAME":"EARTH","MEAN_ANOMALY":"293.4244","CLASSIFICATION_TYPE":"U","TLE_LINE2":"2 45212  53.0532 232.3379 0001503  66.6903 293.4244 15.06388515134774","OBJECT_NAME":"STARLINK-1231","GP_ID":"208468357","ELEMENT_SET_NO":"999","MEAN_MOTION":"15.06388515"},{"REV_AT_EPOCH":"13536","APOAPSIS":"447.375","INCLINATION":"53.0586","OBJECT_ID":"2020-012AM","TLE_LINE1":"1 45213U 20012AM  22200.71992450  .00013258  00000-0  33397-3 0  9990","SITE":"AFETR","ARG_OF_PERICENTER":"352.6701","TLE_LINE2":"2 45213  53.0586 194.0661 0002906 352.6701   7.4260 15.40243424135368","CLASSIFICATION_TYPE":"U","MEAN_ANOMALY":"7.4260","CENTER_NAME":"EARTH","OBJECT_NAME":"STARLINK-1232","GP_ID":"208468607","ELEMENT_SET_NO":"999","MEAN_MOTION":"15.40243424","MEAN_MOTION_DDOT":"0.0000000000000","LAUNCH_DATE":"2020-02-17","FILE":"3517796","ECCENTRICITY":"0.00029060","COUNTRY_CODE":"US","NORAD_CAT_ID":"45213","SEMIMAJOR_AXIS":"6823.527","PERIOD":"93.492","REF_FRAME":"TEME","DECAY_DATE":null,"OBJECT_TYPE":"PAYLOAD","EPHEMERIS_TYPE":"0","TIME_SYSTEM":"UTC","MEAN_MOTION_DOT":"0.00013258","RCS_SIZE":"LARGE","MEAN_ELEMENT_THEORY":"SGP4","EPOCH":"2022-07-19T17:16:41.476800","BSTAR":"0.00033397000000","RA_OF_ASC_NODE":"194.0661","PERIAPSIS":"443.409"}];
